CCSDS_OMM_VERS = 2.0
CREATION_DATE  = 
ORIGINATOR     = 

OBJECT_NAME    = KUIPER-00266
OBJECT_ID      = 2026-030AB
CENTER_NAME    = EARTH
REF_FRAME      = TEME
TIME_SYSTEM    = UTC
MEAN_ELEMENT_THEORY = SGP/SGP4

EPOCH          = 2026-03-03T15:00:30.817152
MEAN_MOTION    = 15.30981659
ECCENTRICITY   = .00224788
INCLINATION    = 51.8809
RA_OF_ASC_NODE = 248.9059
ARG_OF_PERICENTER = 55.2687
MEAN_ANOMALY   = 305.0410

EPHEMERIS_TYPE = 0
CLASSIFICATION_TYPE = U
NORAD_CAT_ID   = 67789
ELEMENT_SET_NO = 999
REV_AT_EPOCH   = 415
BSTAR          = .35847297E-3
MEAN_MOTION_DOT = .1061E-3
MEAN_MOTION_DDOT = 0

CCSDS_OMM_VERS = 2.0
CREATION_DATE  = 
ORIGINATOR     = 

OBJECT_NAME    = KUIPER-00268
OBJECT_ID      = 2026-030AC
CENTER_NAME    = EARTH
REF_FRAME      = TEME
TIME_SYSTEM    = UTC
MEAN_ELEMENT_THEORY = SGP/SGP4

EPOCH          = 2026-03-03T13:48:29.809728
MEAN_MOTION    = 15.35710905
ECCENTRICITY   = .00021985
INCLINATION    = 51.8843
RA_OF_ASC_NODE = 248.5954
ARG_OF_PERICENTER = 33.8026
MEAN_ANOMALY   = 326.3100

EPHEMERIS_TYPE = 0
CLASSIFICATION_TYPE = U
NORAD_CAT_ID   = 67790
ELEMENT_SET_NO = 999
REV_AT_EPOCH   = 415
BSTAR          = .94600384E-3
MEAN_MOTION_DOT = .33124E-3
MEAN_MOTION_DDOT = 0

CCSDS_OMM_VERS = 2.0
CREATION_DATE  = 
ORIGINATOR     = 

OBJECT_NAME    = KUIPER-00270
OBJECT_ID      = 2026-030AD
CENTER_NAME    = EARTH
REF_FRAME      = TEME
TIME_SYSTEM    = UTC
MEAN_ELEMENT_THEORY = SGP/SGP4

EPOCH          = 2026-03-03T14:13:25.401504
MEAN_MOTION    = 15.34359346
ECCENTRICITY   = .00099595
INCLINATION    = 51.8798
RA_OF_ASC_NODE = 248.6986
ARG_OF_PERICENTER = 39.4838
MEAN_ANOMALY   = 320.6871

EPHEMERIS_TYPE = 0
CLASSIFICATION_TYPE = U
NORAD_CAT_ID   = 67791
ELEMENT_SET_NO = 999
REV_AT_EPOCH   = 415
BSTAR          = .79162746E-3
MEAN_MOTION_DOT = .26489E-3
MEAN_MOTION_DDOT = 0

CCSDS_OMM_VERS = 2.0
CREATION_DATE  = 
ORIGINATOR     = 

OBJECT_NAME    = KUIPER-00274
OBJECT_ID      = 2026-030AE
CENTER_NAME    = EARTH
REF_FRAME      = TEME
TIME_SYSTEM    = UTC
MEAN_ELEMENT_THEORY = SGP/SGP4

EPOCH          = 2026-03-03T14:45:56.070720
MEAN_MOTION    = 15.31594334
ECCENTRICITY   = .00174778
INCLINATION    = 51.8814
RA_OF_ASC_NODE = 248.8484
ARG_OF_PERICENTER = 52.3140
MEAN_ANOMALY   = 307.9426

EPHEMERIS_TYPE = 0
CLASSIFICATION_TYPE = U
NORAD_CAT_ID   = 67792
ELEMENT_SET_NO = 999
REV_AT_EPOCH   = 415
BSTAR          = -.4544557E-3
MEAN_MOTION_DOT = -.14488E-3
MEAN_MOTION_DDOT = 0

CCSDS_OMM_VERS = 2.0
CREATION_DATE  = 
ORIGINATOR     = 

OBJECT_NAME    = KUIPER-00275
OBJECT_ID      = 2026-030AF
CENTER_NAME    = EARTH
REF_FRAME      = TEME
TIME_SYSTEM    = UTC
MEAN_ELEMENT_THEORY = SGP/SGP4

EPOCH          = 2026-03-03T14:09:47.043648
MEAN_MOTION    = 15.34439442
ECCENTRICITY   = .00089032
INCLINATION    = 51.8832
RA_OF_ASC_NODE = 248.6913
ARG_OF_PERICENTER = 35.8247
MEAN_ANOMALY   = 324.3335

EPHEMERIS_TYPE = 0
CLASSIFICATION_TYPE = U
NORAD_CAT_ID   = 67793
ELEMENT_SET_NO = 999
REV_AT_EPOCH   = 415
BSTAR          = .10086333E-2
MEAN_MOTION_DOT = .33966E-3
MEAN_MOTION_DDOT = 0

CCSDS_OMM_VERS = 2.0
CREATION_DATE  = 
ORIGINATOR     = 

OBJECT_NAME    = KUIPER-00276
OBJECT_ID      = 2026-030AG
CENTER_NAME    = EARTH
REF_FRAME      = TEME
TIME_SYSTEM    = UTC
MEAN_ELEMENT_THEORY = SGP/SGP4

EPOCH          = 2026-03-03T14:51:32.659200
MEAN_MOTION    = 15.31399109
ECCENTRICITY   = .00186113
INCLINATION    = 51.8812
RA_OF_ASC_NODE = 248.8714
ARG_OF_PERICENTER = 49.5103
MEAN_ANOMALY   = 310.7499

EPHEMERIS_TYPE = 0
CLASSIFICATION_TYPE = U
NORAD_CAT_ID   = 67794
ELEMENT_SET_NO = 999
REV_AT_EPOCH   = 415
BSTAR          = -.10721152E-2
MEAN_MOTION_DOT = -.33404E-3
MEAN_MOTION_DDOT = 0

CCSDS_OMM_VERS = 2.0
CREATION_DATE  = 
ORIGINATOR     = 

OBJECT_NAME    = KUIPER-00279
OBJECT_ID      = 2026-030AH
CENTER_NAME    = EARTH
REF_FRAME      = TEME
TIME_SYSTEM    = UTC
MEAN_ELEMENT_THEORY = SGP/SGP4

EPOCH          = 2026-03-03T14:01:11.028288
MEAN_MOTION    = 15.35091276
ECCENTRICITY   = .00062987
INCLINATION    = 51.8796
RA_OF_ASC_NODE = 248.6432
ARG_OF_PERICENTER = 31.2395
MEAN_ANOMALY   = 328.8964

EPHEMERIS_TYPE = 0
CLASSIFICATION_TYPE = U
NORAD_CAT_ID   = 67795
ELEMENT_SET_NO = 999
REV_AT_EPOCH   = 415
BSTAR          = .10598863E-2
MEAN_MOTION_DOT = .36457E-3
MEAN_MOTION_DDOT = 0

CCSDS_OMM_VERS = 2.0
CREATION_DATE  = 
ORIGINATOR     = 

OBJECT_NAME    = CREW DRAGON 12
OBJECT_ID      = 2026-031A
CENTER_NAME    = EARTH
REF_FRAME      = TEME
TIME_SYSTEM    = UTC
MEAN_ELEMENT_THEORY = SGP/SGP4

EPOCH          = 2026-03-03T12:16:25.462848
MEAN_MOTION    = 15.48420284
ECCENTRICITY   = .00082167
INCLINATION    = 51.6317
RA_OF_ASC_NODE = 102.9010
ARG_OF_PERICENTER = 152.7563
MEAN_ANOMALY   = 207.3857

EPHEMERIS_TYPE = 0
CLASSIFICATION_TYPE = U
NORAD_CAT_ID   = 67796
ELEMENT_SET_NO = 999
REV_AT_EPOCH   = 55511
BSTAR          = .19150871E-3
MEAN_MOTION_DOT = .9912E-4
MEAN_MOTION_DDOT = 0

CCSDS_OMM_VERS = 2.0
CREATION_DATE  = 
ORIGINATOR     = 

OBJECT_NAME    = STARLINK-36800
OBJECT_ID      = 2026-032A
CENTER_NAME    = EARTH
REF_FRAME      = TEME
TIME_SYSTEM    = UTC
MEAN_ELEMENT_THEORY = SGP/SGP4

EPOCH          = 2026-03-03T14:00:03.000384
MEAN_MOTION    = 15.75215404
ECCENTRICITY   = .00013028
INCLINATION    = 97.2836
RA_OF_ASC_NODE = 248.7659
ARG_OF_PERICENTER = 90.4925
MEAN_ANOMALY   = 204.4280

EPHEMERIS_TYPE = 0
CLASSIFICATION_TYPE = U
NORAD_CAT_ID   = 67797
ELEMENT_SET_NO = 999
REV_AT_EPOCH   = 379
BSTAR          = -.43264911E-3
MEAN_MOTION_DOT = -.64249E-3
MEAN_MOTION_DDOT = 0

CCSDS_OMM_VERS = 2.0
CREATION_DATE  = 
ORIGINATOR     = 

OBJECT_NAME    = STARLINK-36798
OBJECT_ID      = 2026-032B
CENTER_NAME    = EARTH
REF_FRAME      = TEME
TIME_SYSTEM    = UTC
MEAN_ELEMENT_THEORY = SGP/SGP4

EPOCH          = 2026-03-03T10:54:04.474080
MEAN_MOTION    = 15.80973994
ECCENTRICITY   = .00015381
INCLINATION    = 97.2839
RA_OF_ASC_NODE = 248.6624
ARG_OF_PERICENTER = 84.4341
MEAN_ANOMALY   = 275.7103

EPHEMERIS_TYPE = 0
CLASSIFICATION_TYPE = U
NORAD_CAT_ID   = 67798
ELEMENT_SET_NO = 999
REV_AT_EPOCH   = 380
BSTAR          = .18391501E-2
MEAN_MOTION_DOT = .37017E-2
MEAN_MOTION_DDOT = 0

CCSDS_OMM_VERS = 2.0
CREATION_DATE  = 
ORIGINATOR     = 

OBJECT_NAME    = STARLINK-36804
OBJECT_ID      = 2026-032C
CENTER_NAME    = EARTH
REF_FRAME      = TEME
TIME_SYSTEM    = UTC
MEAN_ELEMENT_THEORY = SGP/SGP4

EPOCH          = 2026-03-03T14:00:03.000384
MEAN_MOTION    = 15.75205640
ECCENTRICITY   = .00014892
INCLINATION    = 97.2837
RA_OF_ASC_NODE = 248.7701
ARG_OF_PERICENTER = 82.5570
MEAN_ANOMALY   = 222.3495

EPHEMERIS_TYPE = 0
CLASSIFICATION_TYPE = U
NORAD_CAT_ID   = 67799
ELEMENT_SET_NO = 999
REV_AT_EPOCH   = 373
BSTAR          = -.27887947E-3
MEAN_MOTION_DOT = -.41553E-3
MEAN_MOTION_DDOT = 0

CCSDS_OMM_VERS = 2.0
CREATION_DATE  = 
ORIGINATOR     = 

OBJECT_NAME    = STARLINK-36354
OBJECT_ID      = 2026-032D
CENTER_NAME    = EARTH
REF_FRAME      = TEME
TIME_SYSTEM    = UTC
MEAN_ELEMENT_THEORY = SGP/SGP4

EPOCH          = 2026-03-03T14:00:03.000384
MEAN_MOTION    = 15.75199125
ECCENTRICITY   = .00014599
INCLINATION    = 97.2843
RA_OF_ASC_NODE = 248.7974
ARG_OF_PERICENTER = 85.6624
MEAN_ANOMALY   = 281.2337

EPHEMERIS_TYPE = 0
CLASSIFICATION_TYPE = U
NORAD_CAT_ID   = 67800
ELEMENT_SET_NO = 999
REV_AT_EPOCH   = 379
BSTAR          = -.38301954E-3
MEAN_MOTION_DOT = -.56904E-3
MEAN_MOTION_DDOT = 0

