KUIPER-00266            
1 67789U 26030AB  26062.62535668  .00010610  00000+0  35847-3 0  9992
2 67789  51.8809 248.9059 0022478  55.2687 305.0410 15.30981659  4153
KUIPER-00268            
1 67790U 26030AC  26062.57534502  .00033124  00000+0  94600-3 0  9991
2 67790  51.8843 248.5954 0002198  33.8026 326.3100 15.35710905  4150
KUIPER-00270            
1 67791U 26030AD  26062.59265511  .00026489  00000+0  79163-3 0  9998
2 67791  51.8798 248.6986 0009959  39.4838 320.6871 15.34359346  4150
KUIPER-00274            
1 67792U 26030AE  26062.61523230 -.00014488  00000+0 -45446-3 0  9992
2 67792  51.8814 248.8484 0017477  52.3140 307.9426 15.31594334  4158
KUIPER-00275            
1 67793U 26030AF  26062.59012782  .00033966  00000+0  10086-2 0  9996
2 67793  51.8832 248.6913 0008903  35.8247 324.3335 15.34439442  4155
KUIPER-00276            
1 67794U 26030AG  26062.61912800 -.00033404  00000+0 -10721-2 0  9995
2 67794  51.8812 248.8714 0018611  49.5103 310.7499 15.31399109  4157
KUIPER-00279            
1 67795U 26030AH  26062.58415542  .00036457  00000+0  10599-2 0  9995
2 67795  51.8796 248.6432 0006298  31.2395 328.8964 15.35091276  4158
CREW DRAGON 12          
1 67796U 26031A   26062.51140582  .00009912  00000+0  19151-3 0  9999
2 67796  51.6317 102.9010 0008216 152.7563 207.3857 15.48420284555116
STARLINK-36800          
1 67797U 26032A   26062.58336806 -.00064249  00000+0 -43265-3 0  9993
2 67797  97.2836 248.7659 0001302  90.4925 204.4280 15.75215404  3792
STARLINK-36798          
1 67798U 26032B   26062.45421845  .00370170  00000+0  18392-2 0  9991
2 67798  97.2839 248.6624 0001538  84.4341 275.7103 15.80973994  3801
STARLINK-36804          
1 67799U 26032C   26062.58336806 -.00041553  00000+0 -27888-3 0  9991
2 67799  97.2837 248.7701 0001489  82.5570 222.3495 15.75205640  3739
STARLINK-36354          
1 67800U 26032D   26062.58336806 -.00056904  00000+0 -38302-3 0  9993
2 67800  97.2843 248.7974 0001459  85.6624 281.2337 15.75199125  3797
